Name,latitude,longitude,city,postal
Abraham Lincoln Birthplace National Historical Park,37.5858662,-85.67330523,Hodgenville,42748
Acadia National Park,44.409286,-68.247501,Bar Harbor,04609
Adams National Historical Park,42.2553961,-71.01160356,Quincy,02169
African American Civil War Memorial,38.9166,-77.026,Washington,20242
African Burial Ground National Monument,40.71452681,-74.00447358,New York,10005
Agate Fossil Beds National Monument,42.42170419,-103.753886,Harrison,69346
Ala Kahakai National Historic Trail,19.144668109,-155.890734294,Kailua-Kona,96740
Alagnak Wild River,59.05180188,-156.112002,King Salmon,99613
Alaska Public Lands,61.2188,-149.894536,Anchorage,99501
Alcatraz Island,37.82676234,-122.4230206,San Francisco,94123
Aleutian Islands World War II National Historic Area,53.9143,-166.5197,Anchorage,99501
Alibates Flint Quarries National Monument,35.5819662,-101.6717008,Fritch,79036
Allegheny Portage Railroad National Historic Site,40.42977467,-78.57431622,Gallitzin,16641
Amache National Historic Site,38.04962,-102.32903,Granada,81041
American Memorial Park,15.21680033,145.7231096,Saipan,96950
Amistad National Recreation Area,29.53539777,-101.075821,Del Rio,78840
Anacostia Park,38.8782,-76.9703,Washington,20020
Andersonville National Historic Site,32.19831758,-84.12988898,Andersonville,31711
Andrew Johnson National Historic Site,36.15624509,-82.83709021,Greeneville,37743
Aniakchak National Monument & Preserve,56.85317675,-157.5544362,KIng Salmon,99613
Antietam National Battlefield,39.46763452,-77.73828017,Sharpsburg,21782
Apostle Islands National Lakeshore,46.96240467,-90.66045665,Bayfield,54814
Appalachian National Scenic Trail,40.41029575,-76.4337548,Harpers Ferry,25425
Appomattox Court House National Historical Park,37.38022164,-78.79856982,Appomattox,24522
Arches National Park,38.72261844,-109.5863666,Moab,84532
Arkansas Post National Memorial,34.00389998,-91.30837178,Gillett,72055
"Arlington House, The Robert E. Lee Memorial",38.8822021484,-77.0734786987,McLean,22101
Assateague Island National Seashore,38.05593172,-75.24524611,Berlin,21811
Aztec Ruins National Monument,36.83682216,-107.9999245,Aztec,87410
Badlands National Park,43.68584846,-102.482942,Interior,57750
Baltimore-Washington Parkway,39.02604289,-76.85410921,Greenbelt,20770
Bandelier National Monument,35.77898596,-106.3317124,Los Alamos,87544
Belmont-Paul Women's Equality National Monument,38.89231541,-77.00381882,Washington,20242
Bent's Old Fort National Historic Site,38.03977546,-103.4266499,La Junta,81050
Bering Land Bridge National Preserve,65.96087902,-164.4086432,Nome,99762
Big Bend National Park,29.29817767,-103.2297897,Big Bend National Park,79834-0129
Big Cypress National Preserve,25.97079602,-81.08120629,Ochopee,34141
Big Hole National Battlefield,45.64647324,-113.6458443,Wisdom,59761
Big South Fork National River & Recreation Area,36.5348388,-84.66506688,Oneida,37841
Big Thicket National Preserve,30.457983431,-94.386742115,Kountze,77625
Bighorn Canyon National Recreation Area,45.13154227,-108.1443943,Lovell,82431
Birmingham Civil Rights National Monument,33.5154266357,-86.814666748,Birmingham,35203
Biscayne National Park,25.490587,-80.21023851,Homestead,33033
Black Canyon Of The Gunnison National Park,38.57779869,-107.7242756,Gunnison,81230
Blackstone River Valley National Historical Park,41.8775792792,-71.382433945,Pawtucket,02860
Blackwell School National Historic Site,,,Fort Davis,79734
Blue Ridge Parkway,35.5657195274,-82.486484587,Asheville,28803
Bluestone National Scenic River,37.56577087,-80.98366657,Glen Jean,25846
Booker T Washington National Monument,37.11520539,-79.73185833,Hardy,24101
Boston African American National Historic Site,42.35908295,-71.06764181,Boston,02109
Boston Harbor Islands National Recreation Area,42.30905526,-70.93941138,Boston,02109
Boston National Historical Park,42.36957407,-71.05536763,Charlestown,02129
Brices Cross Roads National Battlefield Site,34.50611958,-88.72889343,Tupelo,38804
Brown v. Board of Education National Historical Park,39.03787665,-95.67614437,Topeka,66612-1143
Bryce Canyon National Park,37.58399144,-112.1826689,Bryce,84764
Buck Island Reef National Monument,17.81026717,-64.6222179,"Christiansted, St. Croix",00820
Buffalo National River,36.04116481,-92.90761584,Harrison,72601
Butterfield Overland National Historic Trail,32.2768237589,-106.796583304,Santa Fe,87505
Cabrillo National Monument,32.6722503,-117.2415985,San Diego,92106
California National Historic Trail,42.3999643979,-108.702415369,Santa Fe,87505
Camp Nelson National Monument,37.7970179913,-84.598168306,Nicholasville,40356
Canaveral National Seashore,28.78637529,-80.75419576,Titusville,32796
Cane River Creole National Historical Park,31.65408447,-93.00131977,Natchitoches,71458
Canyon de Chelly National Monument,36.14319567,-109.3388303,Chinle,86503
Canyonlands National Park,38.24555783,-109.8801624,Moab,84532
Cape Cod National Seashore,41.92381465,-70.04319832,Wellfleet,02667
Cape Hatteras National Seashore,35.41370839,-75.65061112,Manteo,27954
Cape Henry Memorial Part of Colonial National Historical Park,36.9278094,-76.0088219,Yorktown,23690
Cape Krusenstern National Monument,67.41499986,-163.5037786,Kotzebue,99752
Cape Lookout National Seashore,34.8267961,-76.34319082,Harkers Island,28531
Capitol Hill Parks,38.889993,-76.990332,Washington,20020
Capitol Reef National Park,38.2821653131,-111.247048378,Torrey,84775
Captain John Smith Chesapeake National Historic Trail,38.971601,-76.483355,Yorktown,23690
Capulin Volcano National Monument,36.78171096,-103.9710427,Capulin,88414
Carl Sandburg Home National Historic Site,35.26815509,-82.45106258,Flat Rock,28731
Carlsbad Caverns National Park,32.14089463,-104.5529688,Carlsbad,88220
Carter G. Woodson Home National Historic Site,38.91089286,-77.02431104,Washington,20020
Casa Grande Ruins National Monument,32.99702582,-111.5325383,Coolidge,85128
Castillo de San Marcos National Monument,29.89785701,-81.31217173,Saint Augustine,32084
Castle Clinton National Monument,40.70347795,-74.01680558,New York,10005
Castle Mountains National Monument,35.29156348,-115.0935606,Barstow,92311
Catoctin Mountain Park,39.65068457,-77.46417665,Thurmont,21788
Cedar Breaks National Monument,37.63545562,-112.845268,Cedar City,84720
Cedar Creek & Belle Grove National Historical Park,39.0093576,-78.30618934,Middletown,22645
Chaco Culture National Historical Park,36.03963414,-107.9560076,Nageezi,87037
Chamizal National Memorial,31.76729634,-106.4544011,El Paso,79905
Channel Islands National Park,33.98680093,-119.9112735,Ventura,93001
Charles Pinckney National Historic Site,32.84577392,-79.82487582,Sullivan's Island,29482
Charles Young Buffalo Soldiers National Monument,39.70817829,-83.89328575,Wilberforce,45384
Chattahoochee River National Recreation Area,33.99698333,-84.28953177,Sandy Springs,30350
Chesapeake & Ohio Canal National Historical Park,39.000283692,-77.2481399539,Williamsport,21795
Chesapeake Bay,38.971601,-76.483355,Annapolis,21401
Chickamauga & Chattanooga National Military Park,34.94317623,-85.28749537,Fort Oglethorpe,30742
Chickasaw National Recreation Area,34.46050507,-97.00715669,Sulphur,73086
Chiricahua National Monument,32.01214618,-109.341607,Willcox,85643
Christiansted National Historic Site,17.73771903,-64.72906227,Christiansted,00820
City Of Rocks National Reserve,42.0699024,-113.7124097,Almo,83312
Civil War Defenses of Washington,38.9644,-77.0292,Washington,20008
Clara Barton National Historic Site,38.96762882,-77.14009689,McLean,22101
Colonial National Historical Park,37.22824435,-76.61998123,Yorktown,23690
Colorado National Monument,39.05045016,-108.6920709,Fruita,81521
Coltsville National Historical Park,42.4677505493,-73.203666687,Springfield,01105
Congaree National Park,33.79187523,-80.74867805,Hopkins,29061
Constitution Gardens,38.8909354,-77.04409306,Washington,20242
Coronado National Memorial,31.34900397,-110.2561574,Hereford,85615
Cowpens National Battlefield,35.13160654,-81.80935433,Gaffney,29341
Crater Lake National Park,42.94065854,-122.1338414,Crater Lake,97604
Craters Of The Moon National Monument & Preserve,43.20345611,-113.4791609,Arco,83213
Cumberland Gap National Historical Park,36.62503076,-83.6114083,Middlesboro,40965
Cumberland Island National Seashore,30.85857484,-81.45253575,St. Marys,31558
Curecanti National Recreation Area,38.46584558,-107.3303371,Gunnison,81230
Cuyahoga Valley National Park,41.26093905,-81.57116722,Brecksville,44141
César E. Chávez National Monument,35.22729389,-118.5615781,Keene,93531
Dayton Aviation Heritage National Historical Park,39.78944467,-84.10442045,Dayton,45402
De Soto National Memorial,27.52272613,-82.64335416,Bradenton,34209
Death Valley National Park,36.48753731,-117.134395,Death Valley,92328
Delaware Water Gap National Recreation Area,41.12793491,-74.94751173,Bushkill,18324
Denali National Park & Preserve,63.29777484,-151.0526568,Denali Park,99755
Devils Postpile National Monument,37.6152564,-119.0873903,Mammoth Lakes,93546
Devils Tower National Monument,44.59064655,-104.7156341,Devils Tower,82714
Dinosaur National Monument,40.50739742,-108.9333714,Dinosaur,81610
Dry Tortugas National Park,24.628741,-82.87319,Homestead,33034
Dwight D. Eisenhower Memorial,38.8869476647,-77.018737554,Washington,20242
Ebey's Landing National Historical Reserve,48.21403036,-122.6877213,Coupeville,98239
Edgar Allan Poe National Historic Site,39.96195482,-75.1500062,Philadelphia,19106
Effigy Mounds National Monument,43.08095081,-91.19687517,Harpers Ferry,52146
Eisenhower National Historic Site,39.79577592,-77.26508101,Gettysburg,17325
El Camino Real de Tierra Adentro National Historic Trail,33.7990672546,-106.866386195,Santa Fe,87505
El Camino Real de los Tejas National Historic Trail,30.0922964581,-97.3397666725,Santa Fe,87505
El Malpais National Monument,34.88422799,-107.9950948,Grants,87020
El Morro National Monument,35.03895916,-108.3463984,Ramah,87321
Eleanor Roosevelt National Historic Site,41.76208482,-73.89894026,Hyde Park,12538
Ellis Island Part of Statue of Liberty National Monument,40.69946,-74.0401,Jersey City,07305
Emmett Till and Mamie Till-Mobley National Monument,33.9711,-90.3698,Sumner,38957
Eugene O'Neill National Historic Site,37.82604456,-122.0271566,Danville,94526
Everglades National Park,25.37294225,-80.88200301,Homestead,33034-6733
Federal Hall National Memorial,40.70731192,-74.01025636,New York,10005
Fire Island National Seashore,40.69668638,-73.00013462,Patchogue,11772
First Ladies National Historic Site,40.79689857,-81.37579869,Canton,44702-2107
First State National Historical Park,39.83076929,-75.56353942,New Castle,19720
Flight 93 National Memorial,40.06061476,-78.89456905,Shanksville,15560
Florissant Fossil Beds National Monument,38.91260586,-105.2803396,Florissant,80816
Ford's Theatre,38.89668819,-77.02577944,Washington,20242
Fort Bowie National Historic Site,32.14925942,-109.451132,Bowie,85605
Fort Davis National Historic Site,30.59930381,-103.8961904,Fort Davis,79734
Fort Donelson National Battlefield,36.49019078,-87.92445695,Dover,37058
Fort Dupont Park,38.87731289,-76.94955824,Washington,20020
Fort Foote Park,38.76901785,-77.02812387,Fort Washington,20744
Fort Frederica National Monument,31.2214699,-81.39452014,St. Simons Island,31522
Fort Laramie National Historic Site,42.20301694,-104.5459112,Fort Laramie,82212
Fort Larned National Historic Site,38.18047491,-99.21836664,Larned,67550
Fort Matanzas National Monument,29.7121489,-81.23567535,Saint Augustine,32080
Fort McHenry National Monument and Historic Shrine,39.26395314,-76.58044165,Baltimore,21230
Fort Monroe National Monument,37.01733343,-76.30103195,Fort Monroe,23651-1001
Fort Necessity National Battlefield,39.81306048,-79.59033344,Farmington,15437
Fort Point National Historic Site,37.80837439,-122.473747,San Francisco,94123
Fort Pulaski National Monument,32.0308274,-80.93361681,Savannah,31410
Fort Raleigh National Historic Site,35.93278602,-75.71496865,Manteo,27954
Fort Scott National Historic Site,37.84358849,-94.70429174,Fort Scott,66701
Fort Smith National Historic Site,35.38834746,-94.43129079,Fort Smith,72901
Fort Stanwix National Monument,43.21053441,-75.45557626,Rome,13440
Fort Sumter and Fort Moultrie National Historical Park,32.75654469,-79.87068744,Sullivan's Island,29482
Fort Union National Monument,35.90700629,-105.0145185,Watrous,87753
Fort Union Trading Post National Historic Site,48.00075828,-104.0375238,Williston,58801
Fort Vancouver National Historic Site,45.62234841,-122.6617043,Vancouver,98661
Fort Washington Park,38.7117,-77.0302,Fort Washington,20744
Fossil Butte National Monument,41.85635223,-110.7624754,Kemmerer,83101
Franklin Delano Roosevelt Memorial,38.88341274,-77.04311542,Washington,20242
Frederick Douglass National Historic Site,38.86298458,-76.98508147,Washington,20020
Frederick Law Olmsted National Historic Site,42.32424266,-71.13202567,Brookline,02445
Fredericksburg & Spotsylvania National Military Park,38.29378,-77.46734,Fredericksburg,22405
Freedom Riders National Monument,33.635269165,-85.9064331055,Anniston,36201
Friendship Hill National Historic Site,39.77543423,-79.92504169,Farmington,15437
Gates Of The Arctic National Park & Preserve,67.75961636,-153.2917758,Fairbanks,99701
Gateway Arch National Park,38.6258069,-90.1892508,St. Louis,63102
Gateway National Recreation Area,40.56536246,-73.9171087,Staten Island,10305
Gauley River National Recreation Area,38.20614947,-81.00420836,Glen Jean,25846-0246
General Grant National Memorial,40.81332817,-73.96331542,New York,10005
George Rogers Clark National Historical Park,38.67912659,-87.53545212,Vincennes,47591
George Washington Birthplace National Monument,38.19362603,-76.92079458,Colonial Beach,22443
George Washington Carver National Monument,36.9871322,-94.35522737,Diamond,64840
George Washington Memorial Parkway,38.9628,-77.1495,McLean,22101
Gettysburg National Military Park,39.81557366,-77.23246758,Gettysburg,17325
Gila Cliff Dwellings National Monument,33.22715258,-108.2706711,Mimbres,88049
Glacier Bay National Park & Preserve,58.80086718,-136.8407579,Gustavus,99826
Glacier National Park,48.68414678,-113.8009306,West Glacier,59936
Glen Canyon National Recreation Area,36.9357464677,-111.485594268,Page,86040
Glen Echo Park,38.96912315,-77.14012206,Glen Echo,20812
Gloria Dei Church National Historic Site,39.93435005,-75.14398924,Philadelphia,19106
Golden Gate National Recreation Area,37.85982543,-122.6007386,San Francisco,94123-0022
Golden Spike National Historical Park,41.61947508,-112.5242653,Brigham City,84302
Governors Island National Monument,40.69164233,-74.01670765,New York,10004-1921
Grand Canyon National Park,36.0001165336,-112.121516363,Grand Canyon,86023
Grand Canyon-Parashant National Monument,36.41535465,-113.6682797,Saint George,84790
Grand Portage National Monument,47.99294217,-89.75573031,Grand Portage,55605
Grand Teton National Park,43.81853565,-110.7054666,Moose,83012
Grant-Kohrs Ranch National Historic Site,46.41358923,-112.7467024,Deer Lodge,59722
Great Basin National Park,38.94617378,-114.2579782,Baker,89311
Great Egg Harbor River,39.3042,-74.6497,Philadelphia,19106
Great Falls Park,38.98776107,-77.25128326,McLean,22101
Great Sand Dunes National Park & Preserve,37.79256812,-105.5919572,Mosca,81146
Great Smoky Mountains National Park,35.60116374,-83.50818326,Gatlinburg,37738
Green Springs,38.037099,-78.189823,Multiple Privately Owned Properties,23093
Greenbelt Park,38.98328267,-76.89722133,Greenbelt,20770
Guadalupe Mountains National Park,31.92304462,-104.885527,Salt Flat,79847
Guilford Courthouse National Military Park,36.13225478,-79.8424561,Greensboro,27410
Gulf Islands National Seashore,30.3211,-87.2304,Gulf Breeze,32563
Hagerman Fossil Beds National Monument,42.79074114,-114.9443074,Hagerman,83332
Haleakalā National Park,20.70693015,-156.1591775,Makawao,96768
Hamilton Grange National Memorial,40.81871605,-73.94878487,New York,10031
Hampton National Historic Site,39.4175296,-76.58781182,Towson,21286
Harmony Hall,38.74646351,-77.00377069,Fort Washington,20744
Harpers Ferry National Historical Park,39.31865949,-77.74088546,Harpers Ferry,25425
Harriet Tubman National Historical Park,42.9128920287,-76.5646715462,Auburn,13021-0769
Harriet Tubman Underground Railroad National Historical Park,38.4548643511,-76.1373451376,Church Creek,21622
Harry S Truman National Historic Site,38.92711967,-94.5162488,Independence,64050
Hawaiʻi Volcanoes National Park,19.3355036,-155.4700257,Hawaii National Park,96718
Herbert Hoover National Historic Site,41.66793558,-91.35232139,West Branch,52358
Historic Jamestowne Part of Colonial National Historical Park,37.2065,-76.7538,Yorktown,23690
Home Of Franklin D Roosevelt National Historic Site,41.76639758,-73.92516857,Hyde Park,12538
Homestead National Historical Park,40.28802381,-96.83387781,Beatrice,68310
Honouliuli National Historic Site,21.38817536,-158.0574991,Honolulu,96818
Hopewell Culture National Historical Park,39.31594374,-83.08049456,Chillicothe,45601
Hopewell Furnace National Historic Site,40.20610637,-75.76766355,Elverson,19520
Horseshoe Bend National Military Park,32.97668879,-85.73413589,Daviston,36256
Hot Springs National Park,34.52414366,-93.06332936,Hot Springs,71901
Hovenweep National Monument,37.39134092,-109.0047977,Cortez,81321
Hubbell Trading Post National Historic Site,35.70727324,-109.5599515,Ganado,86505-0150
Ice Age Floods National Geologic Trail,46.5669309008,-118.992564971,Coulee Dam,99116
Ice Age National Scenic Trail,43.9895697794,-89.5612021706,Cross Plains,53528
Independence National Historical Park,39.94746112,-75.14794157,Philadelphia,19106
Indiana Dunes National Park,41.63765525,-87.09647445,Porter,46304
Isle Royale National Park,48.01145819,-88.82780657,Houghton,49931
Iñupiat Heritage Center,71.29832445,-156.7535863,Barrow,99723
James A Garfield National Historic Site,41.66486549,-81.35086557,Mentor,44060
Jean Lafitte National Historical Park and Preserve,29.81739855,-90.1402241,New Orleans,70130
Jewel Cave National Monument,43.73102945,-103.829994,Custer,57730
Jimmy Carter National Historical Park,32.03611,-84.3924,Plains,31780
John Day Fossil Beds National Monument,44.62566508,-119.8811491,Kimberly,97848
John Fitzgerald Kennedy National Historic Site,42.34693694,-71.12323846,Brookline,02446
John Muir National Historic Site,37.9828422,-122.1326097,Martinez,94553
Johnstown Flood National Memorial,40.34584534,-78.77448601,South Fork,15956
Joshua Tree National Park,33.91418525,-115.8398125,Twentynine Palms,92277-3597
Juan Bautista de Anza National Historic Trail,33.8743390994,-117.224179857,Richmond,94804
Kalaupapa National Historical Park,21.1731108,-156.9511609,Kalaupapa,96742
Kaloko-Honokōhau National Historical Park,19.68083237,-156.0306932,Kailua-Kona,96740
Katahdin Woods and Waters National Monument,45.9567565918,-68.7122879028,Patten,04765
Katmai National Park & Preserve,58.62235668,-155.0126574,King Salmon,99613
Kenai Fjords National Park,59.81804414,-150.106502,Seward,99664
Kenilworth Park & Aquatic Gardens,38.9128,-76.9434,Washington,20020
Kennesaw Mountain National Battlefield Park,33.95370717,-84.59214186,Kennesaw,30152
Keweenaw National Historical Park,47.1792308,-88.52275344,Calumet,49913
Kings Mountain National Military Park,35.13900723,-81.38978712,Blacksburg,29702
Klondike Gold Rush - Seattle Unit National Historical Park,47.5993663,-122.3319664,Seattle,98104
Klondike Gold Rush National Historical Park,59.61042373,-135.2618535,Skagway,99840
Knife River Indian Villages National Historic Site,47.3540219,-101.3860533,Stanton,58571
Kobuk Valley National Park,67.35631336,-159.2002293,Kotzebue,99752
Korean War Veterans Memorial,38.88784226,-77.04773857,Washington,20242
LBJ Memorial Grove on the Potomac,38.87858036,-77.05145832,McLean,22101
Lake Clark National Park & Preserve,60.57405857,-153.55535,Anchorage,99501
Lake Mead National Recreation Area,35.96622528,-114.3469067,Boulder City,89005
Lake Meredith National Recreation Area,35.61926203,-101.6820066,Fritch,79036
Lake Roosevelt National Recreation Area,48.17148735,-118.3513713,Coulee Dam,99116
Lassen Volcanic National Park,40.49354575,-121.4075993,Mineral,96063
Lava Beds National Monument,41.75915823,-121.5172189,Tulelake,96134
Lewis & Clark National Historic Trail,41.2646141052,-95.9245147705,Omaha,68102
Lewis and Clark National Historical Park,46.21178735,-123.9638583,Astoria,97103
Lincoln Boyhood National Memorial,38.11817004,-86.99656861,Lincoln City,47552
Lincoln Home National Historic Site,39.79715642,-89.64513397,Springfield,62701
Lincoln Memorial,38.88927229,-77.05017778,Washington,20242
Little Bighorn Battlefield National Monument,45.55633048,-107.4183614,Crow Agency,59022-0039
Little River Canyon National Preserve,34.41461863,-85.61734327,Fort Payne,35967
Little Rock Central High School National Historic Site,34.7369465,-92.29987899,Little Rock,72202-5212
Longfellow House Washington's Headquarters National Historic Site,42.37698854,-71.12636956,Cambridge,02138
Lowell National Historical Park,42.6455371,-71.31588673,Lowell,01852
Lower Delaware National Wild and Scenic River,40.4000389,-74.983737,Philadelphia,19107
Lower East Side Tenement Museum National Historic Site,40.7187683,-73.99001245,New York,10002
Lyndon B Johnson National Historical Park,30.2519655,-98.60692433,Johnson City,78636
Maggie L Walker National Historic Site,37.54781499,-77.43746979,Richmond,23223
Maine Acadian Culture,47.25102114,-68.59447532,Madawaska,04756
Mammoth Cave National Park,37.19760458,-86.13090198,Mammoth Cave,42259-0007
Manassas National Battlefield Park,38.81710063,-77.5353468,Manassas,20109
Manhattan Project National Historical Park,35.88096,-106.30214,Denver,80225-0287
Manzanar National Historic Site,36.72559195,-118.1547177,Independence,93526
Marsh - Billings - Rockefeller National Historical Park,43.63348732,-72.53424638,Woodstock,05091
"Martin Luther King, Jr. Memorial",38.8862276865,-77.0442195534,Washington,20242
"Martin Luther King, Jr. National Historical Park",33.75618241,-84.37256768,Atlanta,30312
Martin Van Buren National Historic Site,42.36819596,-73.70834257,Kinderhook,12106-3605
Mary McLeod Bethune Council House National Historic Site,38.90819107,-77.03096742,Washington,20005
Medgar and Myrlie Evers Home National Monument,32.34096274,-90.21264553,Jackson,39201
Mesa Verde National Park,37.23908345,-108.4624032,Mesa Verde National Park,81330
Mill Springs Battlefield National Monument,37.0688158602,-84.7375361304,Nancy,42544
Minidoka National Historic Site,42.80586068,-114.4449868,Jerome,83338
Minute Man National Historical Park,42.4562778,-71.30738884,Concord,01742
Minuteman Missile National Historic Site,43.89558013,-102.0272131,Philip,57567
Mississippi National River & Recreation Area,44.942487,-93.098712,Saint Paul,55101
Missouri National Recreational River,42.7882189,-97.59077822,Yankton,57078
Mojave National Preserve,35.12485941,-115.5168258,Barstow,92311
Monocacy National Battlefield,39.36084236,-77.39637677,Frederick,21704
Montezuma Castle National Monument,34.62237771,-111.8147857,Camp Verde,86322
Moores Creek National Battlefield,34.45820776,-78.11031134,Currie,28435
Mormon Pioneer National Historic Trail,41.2650321741,-101.84083756,Santa Fe,87505
Morristown National Historical Park,40.7650755,-74.53455122,Morristown,07960
Mount Rainier National Park,46.86075416,-121.7043885,Ashford,98304
Mount Rushmore National Memorial,43.88037021,-103.4525186,Keystone,57751
Muir Woods National Monument,37.89658027,-122.5808047,Mill Valley,94941
Natchez National Historical Park,31.54697621,-91.39040665,Natchez,39120
Natchez Trace National Scenic Trail,34.330290333,-88.7100104094,Tupelo,38804
Natchez Trace Parkway,33.78002293,-89.03092439,Tupelo,38804
National Capital Parks-East,38.8659,-76.994,Washington,20020
National Mall and Memorial Parks,38.8899,-77.026,Washington,20242
National Park of American Samoa,-14.22865935,-169.8503777,Pago Pago,96799
National Parks of New York Harbor,40.6632,-74.0451,New York,10007
Natural Bridges National Monument,37.6045329,-110.0022436,Lake Powell,84533-0001
Navajo National Monument,36.71755643,-110.5504015,Shonto,86045
New Bedford Whaling National Historical Park,41.63540552,-70.92322321,New Bedford,02740
New England National Scenic Trail,42.2915819137,-72.5242767334,Springfield,01105
New Jersey Pinelands National Reserve,39.9384,-74.625,New Lisbon,08064
New Orleans Jazz National Historical Park,29.96303129,-90.06749669,New Orleans,70130
New Philadelphia National Historic Site,39.69803,-90.96131,Omaha,68102
New River Gorge National Park & Preserve,37.86878554,-80.99956002,Glen Jean,25846
Nez Perce National Historical Park,46.07019093,-115.8761258,Lapwai,83540-9715
Nicodemus National Historic Site,39.39167606,-99.61680329,Nicodemus,67625-3015
Ninety Six National Historic Site,34.14273587,-82.01636079,Ninety Six,29666
Niobrara National Scenic River,42.79413083,-99.91870646,Valentine,69201
Noatak National Preserve,68.01027053,-159.831694,Kotzebue,99752
North Cascades National Park,48.71171756,-121.2069423,Sedro-Woolley,98284
North Country National Scenic Trail,46.334400743,-90.8165630499,Lowell,49331
Obed Wild & Scenic River,36.1056026037,-84.5979170501,Wartburg,37887
Ocmulgee Mounds National Historical Park,32.83816576,-83.60224853,Macon,31217
Oklahoma City National Memorial,35.473,-97.5171,Oklahoma City,73102-0676
Old Spanish National Historic Trail,37.0791782514,-112.114693431,Santa Fe,87505
Olympic National Park,47.80392754,-123.6663848,Port Angeles,98362
Oregon Caves National Monument & Preserve,42.10319143,-123.4018586,Cave Junction,97523
Oregon National Historic Trail,41.9876977831,-109.634200841,Santa Fe,87505
Organ Pipe Cactus National Monument,32.03585543,-112.8573314,Ajo,85321
Overmountain Victory National Historic Trail,35.14044,-81.377,Gaffney,29341
Oxon Cove Park & Oxon Hill Farm,38.80578214,-77.01131457,Oxon Hill,20745
Ozark National Scenic Riverways,37.13968894,-91.25709817,Van Buren,63965
Padre Island National Seashore,27.05381186,-97.35901135,Corpus Christi,78480
Palo Alto Battlefield National Historical Park,26.02387351,-97.46296072,Brownsville,78520
Paterson Great Falls National Historical Park,40.91584645,-74.18021494,Paterson,07501
Pea Ridge National Military Park,36.45438033,-94.03468357,Garfield,72732
Pearl Harbor National Memorial,21.3670699388,-157.938578898,Honolulu,96818
Pecos National Historical Park,35.54192238,-105.6814684,Pecos,87552
Pennsylvania Avenue,38.89426856,-77.02506554,Washington,20242
Perry's Victory & International Peace Memorial,41.65449782,-82.8115794,Put-in-Bay,43456
Petersburg National Battlefield,37.19109957,-77.47594865,Petersburg,23803
Petrified Forest National Park,34.98387664,-109.7877678,Petrified Forest,86028-2217
Petroglyph National Monument,35.13915998,-106.7491456,Albuquerque,87120
Pictured Rocks National Lakeshore,46.56435642,-86.31628733,Munising,49862
Pinnacles National Park,36.49029208,-121.1813607,Paicines,95043
Pipe Spring National Monument,36.86282666,-112.7398567,Fredonia,86022
Pipestone National Monument,44.01351958,-96.32475523,Pipestone,56164
Piscataway Park,38.6929,-77.067,Fort Washington,20616
Point Reyes National Seashore,38.05511241,-122.8797804,Point Reyes Station,94956
Pony Express National Historic Trail,42.2365761128,-109.266148417,Santa Fe,87505
Port Chicago Naval Magazine National Memorial,38.05685472,-122.0301603,Martinez,94553
Potomac Heritage National Scenic Trail,39.15060133,-77.52301085,Williamsport,21795
Poverty Point National Monument,32.6424361,-91.40829834,Pioneer,71266
President William Jefferson Clinton Birthplace Home National Historic Site,33.66758356,-93.59641868,Hope,71801
Presidio of San Francisco,37.797,-122.4671,San Francisco,94123
Prince William Forest Park,38.58589108,-77.38910997,Triangle,22172
Pullman National Historical Park,41.69429163,-87.60873824,Chicago,60628
Puʻuhonua o Hōnaunau National Historical Park,19.41268627,-155.9008789,Hōnaunau,96726
Puʻukoholā Heiau National Historic Site,20.02772186,-155.8211629,Kawaihae,96743
Rainbow Bridge National Monument,36.9943264317,-111.491484759,Page,86040
Reconstruction Era National Historical Park,32.3868598938,-80.6511077881,Beaufort,29902
Redwood National and State Parks,41.37237268,-124.0318129,Crescent City,95531
Richmond National Battlefield Park,37.48774472,-77.29107785,Richmond,23223
Rio Grande Wild & Scenic River,29.52743158,-102.5979169,Big Bend National Park,79834
River Raisin National Battlefield Park,41.91291085,-83.37620464,Monroe,48162
Rock Creek Park,38.95125063,-77.05002838,Washington,20015
Rocky Mountain National Park,40.3556924,-105.6972879,Estes Park,80517
Roger Williams National Memorial,41.8298955,-71.41056665,Providence,02903
Roosevelt Campobello International Park,44.8736,-66.9621,Welshpool,E5E 1A4
Rosie the Riveter WWII Home Front National Historical Park,37.90999027,-122.360156,Richmond,94804
Russell Cave National Monument,34.97402063,-85.81560314,Bridgeport,35740
Sagamore Hill National Historic Site,40.88579128,-73.49686438,Oyster Bay,11771
Saguaro National Park,32.20909636,-110.7574974,Tucson,85730
Saint Croix Island International Historic Site,45.12858838,-67.13363651,Calais,04619
Saint Croix National Scenic Riverway,45.70019235,-92.36126685,St. Croix Falls,54024
Saint Paul's Church National Historic Site,40.89283511,-73.82577276,Mount Vernon,10550
Saint-Gaudens National Historical Park,43.4997238,-72.37333969,Cornish,03745
Salem Maritime National Historic Site,42.52024529,-70.88640867,Salem,01970
Salinas Pueblo Missions National Monument,34.35423203,-106.2050309,Mountainair,87036-0517
Salt River Bay National Historical Park and Ecological Preserve,17.77908602,-64.75519348,Christiansted,00820
San Antonio Missions National Historical Park,29.31262089,-98.4289522,San Antonio,78210
San Francisco Maritime National Historical Park,37.81005871,-122.4244415,San Francisco,94123
San Juan Island National Historical Park,48.51241933,-123.0610277,Friday Harbor,98250
San Juan National Historic Site,18.46873857,-66.11848623,San Juan,00901
Sand Creek Massacre National Historic Site,38.56414189,-102.5169542,Eads,81036-0249
Santa Fe National Historic Trail,37.7276522226,-99.921969227,Santa Fe,87505
Santa Monica Mountains National Recreation Area,34.09777606,-118.7708619,Calabasas,91302
Saratoga National Historical Park,42.99522612,-73.63386108,Stillwater,12170
Saugus Iron Works National Historic Site,42.46830664,-71.0076953,Saugus,01906
Scotts Bluff National Monument,41.83464193,-103.7071351,Gering,69341
Selma To Montgomery National Historic Trail,32.27082092,-86.72823702,Hayneville,36040
Sequoia & Kings Canyon National Parks,36.71277299,-118.587429,Three Rivers,93271
Shenandoah National Park,38.49236644,-78.46907715,Luray,22835
Shiloh National Military Park,35.13850907,-88.3421072,Shiloh,38376
Sitka National Historical Park,57.04718173,-135.3156876,Sitka,99835
Sleeping Bear Dunes National Lakeshore,44.92844962,-86.02706591,Empire,49630
Springfield Armory National Historic Site,42.1086368,-72.57967415,Springfield,01105
Star-Spangled Banner National Historic Trail,39.2872505188,-76.6034317017,Baltimore,21230
Statue Of Liberty National Monument,40.6898,-74.0451,New York,10004
Ste. Geneviève National Historical Park,37.9792171421,-90.0432157516,Ste. Genevieve,63670
Steamtown National Historic Site,41.40757521,-75.67037255,Scranton,18503-2018
Stones River National Battlefield,35.87608652,-86.43078399,Murfreesboro,37129
Stonewall National Monument,40.7337799072,-74.0006866455,New York,10005
Sunset Crater Volcano National Monument,35.37114323,-111.510376,Flagstaff,86004
Tallgrass Prairie National Preserve,38.44023613,-96.5670822,Strong City,66869
Thaddeus Kosciuszko National Memorial,39.94345312,-75.14732045,Philadelphia,19106
The White House and President's Park,38.89541886,-77.03654147,Washington,20240
Theodore Roosevelt Birthplace National Historic Site,40.7386469,-73.98903703,New York,10003
Theodore Roosevelt Inaugural National Historic Site,42.90146781,-78.87248411,Buffalo,14202
Theodore Roosevelt Island,38.89584162,-77.06241918,McLean,22101
Theodore Roosevelt National Park,47.17777274,-103.4300083,Medora,58645
Thomas Cole National Historic Site,42.22570607,-73.86154864,Catskill,12414
Thomas Edison National Historical Park,40.78549896,-74.23821139,West Orange,07052
Thomas Jefferson Memorial,38.88101431,-77.03632572,Washington,20242
Thomas Stone National Historic Site,38.52934443,-77.037813,Port Tobacco,20677
Timpanogos Cave National Monument,40.44039719,-111.7093944,American Fork,84003
Timucuan Ecological & Historic Preserve,30.47251894,-81.49950104,Jacksonville,32225
Tonto National Monument,33.64842945,-111.1135627,Roosevelt,85545
Touro Synagogue National Historic Site,41.4893,-71.3121,Newport,02840
Trail Of Tears National Historic Trail,36.0530021046,-89.6761041963,Santa Fe,87505
Tule Lake National Monument,41.88727902,-121.3744818,Tulelake,96134
Tule Springs Fossil Beds National Monument,36.3893217,-115.3202223,Boulder City,89005
Tumacácori National Historical Park,31.567824,-111.051223,Tumacacori,85640
Tupelo National Battlefield,34.25557705,-88.73708623,Tupelo,38804
Tuskegee Airmen National Historic Site,32.45538671,-85.67983321,Tuskegee,36083
Tuskegee Institute National Historic Site,32.42962115,-85.70488498,Tuskegee Institute,36088
Tuzigoot National Monument,34.77296377,-112.0279069,Camp Verde,86322
Ulysses S Grant National Historic Site,38.55182374,-90.35169255,St. Louis,63123
Upper Delaware Scenic & Recreational River,41.66172578,-75.03861562,Beach Lake,18405
Valles Caldera National Preserve,35.91682872,-106.5195724,Jemez Springs,87025
Valley Forge National Historical Park,40.10054985,-75.44581889,King of Prussia,19406
Vanderbilt Mansion National Historic Site,41.79697937,-73.94205557,Hyde Park,12538
Vicksburg National Military Park,32.3621286,-90.85030186,Vicksburg,39183
Vietnam Veterans Memorial,38.89096297,-77.04765735,Washington,20242
Virgin Islands Coral Reef National Monument,18.28996918,-64.70683395,St. John,00830
Virgin Islands National Park,18.34279656,-64.74194451,St. John,00830
Voyageurs National Park,48.48370609,-92.8382913,International Falls,56649
Waco Mammoth National Monument,31.60465887,-97.17606143,Waco,76708
Walnut Canyon National Monument,35.16822994,-111.5024239,Flagstaff,86004
War In The Pacific National Historical Park,13.43795691,144.6922461,Hagatna,96910
Washington Monument,38.88948,-77.035207,Washington,20242
Washington-Rochambeau Revolutionary Route National Historic Trail,40.0958204557,-74.8563515109,King of Prussia,19406
Washita Battlefield National Historic Site,35.62083963,-99.70445143,Cheyenne,73628
Weir Farm National Historical Park,41.25886268,-73.45452542,Wilton,06897
Whiskeytown National Recreation Area,40.61359941,-122.6022657,Whiskeytown,96095
White Sands National Park,32.77907858,-106.3333461,Holloman AFB,88330
Whitman Mission National Historic Site,46.04119286,-118.4629388,Walla Walla,99362
William Howard Taft National Historic Site,39.11970352,-84.50758951,Cincinnati,45219
Wilson's Creek National Battlefield,37.1000127,-93.40986704,Republic,65738
Wind Cave National Park,43.58012365,-103.4394709,Hot Springs,57747
Wing Luke Museum Affiliated Area,47.59820859,-122.3228912,Seattle,98104
Wolf Trap National Park for the Performing Arts,38.93854526,-77.265089,Vienna,22182-1643
Women's Rights National Historical Park,42.90817073,-76.81655558,Seneca Falls,13148
World War I Memorial,38.8959,-77.0329,Washington,20004
World War II Memorial,38.88923917,-77.0403759,Washington,20242
Wrangell - St Elias National Park & Preserve,61.4182147,-142.6028439,Copper Center,99573
Wright Brothers National Memorial,36.01637713,-75.66997163,Manteo,27954
Wupatki National Monument,35.55741077,-111.3957216,Flagstaff,86004
Yellowstone National Park,44.59824417,-110.5471695,Yellowstone National Park,82190-0168
Yorktown Battlefield Part of Colonial National Historical Park,37.2195,-76.4983,Yorktown,23690
Yosemite National Park,37.84883288,-119.5571873,Yosemite,95389
Yucca House National Monument,37.24778944,-108.6861274,Mesa Verde,81330
Yukon - Charley Rivers National Preserve,65.0935608,-142.7960021,Fairbanks,99701
Zion National Park,37.29839254,-113.0265138,Springdale,84767
